{
  "type": "FeatureCollection",
  "features": [
    {
      "type": "Feature",
      "properties": {
        "norad_id": 2807,
        "name": "OPS 7218 (TRANSIT 16)",
        "group": "nnss",
        "lat": 89.04195117556019,
        "lon": 14.16867498228658,
        "alt_km": 1050.0201629745861,
        "timestamp": "2025-12-06T14:35:37.394571+00:00",
        "meta_object_name": "OPS 7218 (TRANSIT 16)",
        "meta_object_id": "1967-048A",
        "meta_epoch": "2025-12-06T00:04:17.891904",
        "meta_mean_motion": 13.50720333,
        "meta_eccentricity": 0.00216313,
        "meta_inclination": 89.6733,
        "meta_ra_of_asc_node": 354.2398,
        "meta_arg_of_pericenter": 132.2001,
        "meta_mean_anomaly": 256.5241,
        "meta_ephemeris_type": 0,
        "meta_classification_type": "U",
        "meta_norad_cat_id": 2807,
        "meta_element_set_no": 999,
        "meta_rev_at_epoch": 88185,
        "meta_bstar": 0.00025066895,
        "meta_mean_motion_dot": 1.72e-06,
        "meta_mean_motion_ddot": 0,
        "tle_line1": "1 02807U 67048A   25340.00298486  .00000172  00000+0  25067-3 0  9995",
        "tle_line2": "2 02807  89.6733 354.2398 0021631 132.2001 256.5241 13.50720333881853"
      },
      "geometry": {
        "type": "Point",
        "coordinates": [
          14.16867498228658,
          89.04195117556019
        ]
      }
    },
    {
      "type": "Feature",
      "properties": {
        "norad_id": 2965,
        "name": "OPS 4947 (TRANSIT 17)",
        "group": "nnss",
        "lat": 86.55442090715718,
        "lon": -167.65674720728862,
        "alt_km": 1084.0810566497503,
        "timestamp": "2025-12-06T14:35:37.394593+00:00",
        "meta_object_name": "OPS 4947 (TRANSIT 17)",
        "meta_object_id": "1967-092A",
        "meta_epoch": "2025-12-06T01:50:48.820416",
        "meta_mean_motion": 13.53451191,
        "meta_eccentricity": 0.00458489,
        "meta_inclination": 89.2503,
        "meta_ra_of_asc_node": 24.9437,
        "meta_arg_of_pericenter": 254.5025,
        "meta_mean_anomaly": 132.75,
        "meta_ephemeris_type": 0,
        "meta_classification_type": "U",
        "meta_norad_cat_id": 2965,
        "meta_element_set_no": 999,
        "meta_rev_at_epoch": 87007,
        "meta_bstar": 0.00030153037,
        "meta_mean_motion_dot": 2.15e-06,
        "meta_mean_motion_ddot": 0,
        "tle_line1": "1 02965U 67092A   25340.07695394  .00000215  00000+0  30153-3 0  9995",
        "tle_line2": "2 02965  89.2503  24.9437 0045848 254.5025 132.7500 13.53451191870075"
      },
      "geometry": {
        "type": "Point",
        "coordinates": [
          -167.65674720728862,
          86.55442090715718
        ]
      }
    },
    {
      "type": "Feature",
      "properties": {
        "norad_id": 3133,
        "name": "OPS 7034 (TRANSIT 18)",
        "group": "nnss",
        "lat": -74.84538590603862,
        "lon": -86.27785790898919,
        "alt_km": 1081.326455680025,
        "timestamp": "2025-12-06T14:35:37.394606+00:00",
        "meta_object_name": "OPS 7034 (TRANSIT 18)",
        "meta_object_id": "1968-012A",
        "meta_epoch": "2025-12-05T21:31:36.702048",
        "meta_mean_motion": 13.51563444,
        "meta_eccentricity": 0.0073213,
        "meta_inclination": 90.0272,
        "meta_ra_of_asc_node": 273.6197,
        "meta_arg_of_pericenter": 189.0449,
        "meta_mean_anomaly": 237.3312,
        "meta_ephemeris_type": 0,
        "meta_classification_type": "U",
        "meta_norad_cat_id": 3133,
        "meta_element_set_no": 999,
        "meta_rev_at_epoch": 56826,
        "meta_bstar": 0.00026501947,
        "meta_mean_motion_dot": 1.85e-06,
        "meta_mean_motion_ddot": 0,
        "tle_line1": "1 03133U 68012A   25339.89695257  .00000185  00000+0  26502-3 0  9991",
        "tle_line2": "2 03133  90.0272 273.6197 0073213 189.0449 237.3312 13.51563444568262"
      },
      "geometry": {
        "type": "Point",
        "coordinates": [
          -86.27785790898919,
          -74.84538590603862
        ]
      }
    },
    {
      "type": "Feature",
      "properties": {
        "norad_id": 4507,
        "name": "NNSS 19 (TRANSIT 19)",
        "group": "nnss",
        "lat": -79.85620324796713,
        "lon": 54.497111930445826,
        "alt_km": 994.2386760885893,
        "timestamp": "2025-12-06T14:35:37.394618+00:00",
        "meta_object_name": "NNSS 19 (TRANSIT 19)",
        "meta_object_id": "1970-067A",
        "meta_epoch": "2025-12-06T04:24:41.441472",
        "meta_mean_motion": 13.51312552,
        "meta_eccentricity": 0.01709783,
        "meta_inclination": 90.0058,
        "meta_ra_of_asc_node": 234.5293,
        "meta_arg_of_pericenter": 312.5195,
        "meta_mean_anomaly": 46.1621,
        "meta_ephemeris_type": 0,
        "meta_classification_type": "U",
        "meta_norad_cat_id": 4507,
        "meta_element_set_no": 999,
        "meta_rev_at_epoch": 72133,
        "meta_bstar": 0.00034806275,
        "meta_mean_motion_dot": 2.55e-06,
        "meta_mean_motion_ddot": 0,
        "tle_line1": "1 04507U 70067A   25340.18381298  .00000255  00000+0  34806-3 0  9995",
        "tle_line2": "2 04507  90.0058 234.5293 0170978 312.5195  46.1621 13.51312552721330"
      },
      "geometry": {
        "type": "Point",
        "coordinates": [
          54.497111930445826,
          -79.85620324796713
        ]
      }
    },
    {
      "type": "Feature",
      "properties": {
        "norad_id": 6909,
        "name": "NNSS 20 (TRANSIT 20)",
        "group": "nnss",
        "lat": -71.35520633045358,
        "lon": 75.57309288897913,
        "alt_km": 1106.029141103454,
        "timestamp": "2025-12-06T14:35:37.394630+00:00",
        "meta_object_name": "NNSS 20 (TRANSIT 20)",
        "meta_object_id": "1973-081A",
        "meta_epoch": "2025-12-06T04:37:44.297184",
        "meta_mean_motion": 13.71429753,
        "meta_eccentricity": 0.01565653,
        "meta_inclination": 89.856,
        "meta_ra_of_asc_node": 255.1523,
        "meta_arg_of_pericenter": 97.6982,
        "meta_mean_anomaly": 264.1991,
        "meta_ephemeris_type": 0,
        "meta_classification_type": "U",
        "meta_norad_cat_id": 6909,
        "meta_element_set_no": 999,
        "meta_rev_at_epoch": 80271,
        "meta_bstar": 0.00034988406,
        "meta_mean_motion_dot": 3.55e-06,
        "meta_mean_motion_ddot": 0,
        "tle_line1": "1 06909U 73081A   25340.19287381  .00000355  00000+0  34988-3 0  9993",
        "tle_line2": "2 06909  89.8560 255.1523 0156565  97.6982 264.1991 13.71429753802716"
      },
      "geometry": {
        "type": "Point",
        "coordinates": [
          75.57309288897913,
          -71.35520633045358
        ]
      }
    },
    {
      "type": "Feature",
      "properties": {
        "norad_id": 10457,
        "name": "TRANSAT",
        "group": "nnss",
        "lat": -41.233544804393695,
        "lon": 78.50563036429159,
        "alt_km": 1089.4258050800763,
        "timestamp": "2025-12-06T14:35:37.394640+00:00",
        "meta_object_name": "TRANSAT",
        "meta_object_id": "1977-106A",
        "meta_epoch": "2025-12-06T01:25:03.749952",
        "meta_mean_motion": 13.48942032,
        "meta_eccentricity": 0.00247816,
        "meta_inclination": 89.6483,
        "meta_ra_of_asc_node": 78.8335,
        "meta_arg_of_pericenter": 209.1474,
        "meta_mean_anomaly": 324.9775,
        "meta_ephemeris_type": 0,
        "meta_classification_type": "U",
        "meta_norad_cat_id": 10457,
        "meta_element_set_no": 999,
        "meta_rev_at_epoch": 36653,
        "meta_bstar": 0.0002178833,
        "meta_mean_motion_dot": 1.47e-06,
        "meta_mean_motion_ddot": 0,
        "tle_line1": "1 10457U 77106A   25340.05907118  .00000147  00000+0  21788-3 0  9993",
        "tle_line2": "2 10457  89.6483  78.8335 0024781 209.1474 324.9775 13.48942032366536"
      },
      "geometry": {
        "type": "Point",
        "coordinates": [
          78.50563036429159,
          -41.233544804393695
        ]
      }
    },
    {
      "type": "Feature",
      "properties": {
        "norad_id": 12458,
        "name": "NOVA 1",
        "group": "nnss",
        "lat": 65.69293747966734,
        "lon": 91.79884040825159,
        "alt_km": 1158.8136971450813,
        "timestamp": "2025-12-06T14:35:37.394651+00:00",
        "meta_object_name": "NOVA 1",
        "meta_object_id": "1981-044A",
        "meta_epoch": "2025-12-06T07:05:10.925376",
        "meta_mean_motion": 13.23277516,
        "meta_eccentricity": 0.00156697,
        "meta_inclination": 89.8524,
        "meta_ra_of_asc_node": 91.4763,
        "meta_arg_of_pericenter": 119.8526,
        "meta_mean_anomaly": 256.7434,
        "meta_ephemeris_type": 0,
        "meta_classification_type": "U",
        "meta_norad_cat_id": 12458,
        "meta_element_set_no": 999,
        "meta_rev_at_epoch": 15101,
        "meta_bstar": 0.0002024482,
        "meta_mean_motion_dot": 9.5e-07,
        "meta_mean_motion_ddot": 0,
        "tle_line1": "1 12458U 81044A   25340.29526534  .00000095  00000+0  20245-3 0  9996",
        "tle_line2": "2 12458  89.8524  91.4763 0015669 119.8526 256.7434 13.23277516151013"
      },
      "geometry": {
        "type": "Point",
        "coordinates": [
          91.79884040825159,
          65.69293747966734
        ]
      }
    }
  ]
}